{"type":"FeatureCollection","_provenance":{"id":"maritime-chokepoints","source":"Watchboard curated (EIA \"World Oil Transit Chokepoints\", CIA World Factbook)","url":"https://www.eia.gov/international/analysis/special-topics/World_Oil_Transit_Chokepoints","license":"MIT (Watchboard curated data)","attribution":"Chokepoints: Watchboard curated, after EIA/CIA reference works","retrievedAt":"2026-09-07T05:27:16.259Z","transform":"Hand-curated centre points","featureCount":10},"features":[{"type":"Feature","id":"cp-1","properties":{"name":"Strait of Hormuz","note":"Persian Gulf ↔ Gulf of Oman; ~20% of global oil trade"},"geometry":{"type":"Point","coordinates":[56.5,26.57]}},{"type":"Feature","id":"cp-2","properties":{"name":"Bab-el-Mandeb","note":"Red Sea ↔ Gulf of Aden; Suez route"},"geometry":{"type":"Point","coordinates":[43.33,12.58]}},{"type":"Feature","id":"cp-3","properties":{"name":"Suez Canal","note":"Mediterranean ↔ Red Sea"},"geometry":{"type":"Point","coordinates":[32.35,30.45]}},{"type":"Feature","id":"cp-4","properties":{"name":"Strait of Malacca","note":"Indian Ocean ↔ South China Sea"},"geometry":{"type":"Point","coordinates":[100.9,2.5]}},{"type":"Feature","id":"cp-5","properties":{"name":"Taiwan Strait","note":"East China Sea ↔ South China Sea"},"geometry":{"type":"Point","coordinates":[119.8,24.3]}},{"type":"Feature","id":"cp-6","properties":{"name":"Bosporus","note":"Black Sea ↔ Sea of Marmara"},"geometry":{"type":"Point","coordinates":[29.05,41.12]}},{"type":"Feature","id":"cp-7","properties":{"name":"Dardanelles","note":"Sea of Marmara ↔ Aegean"},"geometry":{"type":"Point","coordinates":[26.4,40.2]}},{"type":"Feature","id":"cp-8","properties":{"name":"Strait of Gibraltar","note":"Atlantic ↔ Mediterranean"},"geometry":{"type":"Point","coordinates":[-5.6,35.95]}},{"type":"Feature","id":"cp-9","properties":{"name":"Panama Canal","note":"Atlantic ↔ Pacific"},"geometry":{"type":"Point","coordinates":[-79.8,9.1]}},{"type":"Feature","id":"cp-10","properties":{"name":"Danish Straits","note":"Baltic ↔ North Sea"},"geometry":{"type":"Point","coordinates":[10.8,55.9]}}]}
